{
    "links": {
        "self": "http://www.neowsapp.com/rest/v1/neo/3607821?api_key=iIulBulltgU6a56xZRHN4H3l9WmuAYTsLGpBGhQ2"
    },
    "id": "3607821",
    "neo_reference_id": "3607821",
    "name": "(2012 QK14)",
    "designation": "2012 QK14",
    "nasa_jpl_url": "http://ssd.jpl.nasa.gov/sbdb.cgi?sstr=3607821",
    "absolute_magnitude_h": 22.4,
    "estimated_diameter": {
        "kilometers": {
            "estimated_diameter_min": 0.0880146521,
            "estimated_diameter_max": 0.1968067451
        },
        "meters": {
            "estimated_diameter_min": 88.0146520901,
            "estimated_diameter_max": 196.8067450894
        },
        "miles": {
            "estimated_diameter_min": 0.0546897524,
            "estimated_diameter_max": 0.122290004
        },
        "feet": {
            "estimated_diameter_min": 288.7619911632,
            "estimated_diameter_max": 645.6914415591
        }
    },
    "is_potentially_hazardous_asteroid": false,
    "close_approach_data": [
        {
            "close_approach_date": "2012-09-07",
            "close_approach_date_full": "2012-Sep-07 16:53",
            "epoch_date_close_approach": 1347036780000,
            "relative_velocity": {
                "kilometers_per_second": "3.1682264849",
                "kilometers_per_hour": "11405.6153456767",
                "miles_per_hour": "7087.0058240956"
            },
            "miss_distance": {
                "astronomical": "0.305517468",
                "lunar": "118.846295052",
                "kilometers": "45704762.46059316",
                "miles": "28399622.485019208"
            },
            "orbiting_body": "Earth"
        },
        {
            "close_approach_date": "2016-09-24",
            "close_approach_date_full": "2016-Sep-24 14:31",
            "epoch_date_close_approach": 1474727460000,
            "relative_velocity": {
                "kilometers_per_second": "3.2515901232",
                "kilometers_per_hour": "11705.7244435037",
                "miles_per_hour": "7273.4819465759"
            },
            "miss_distance": {
                "astronomical": "0.3750674034",
                "lunar": "145.9012199226",
                "kilometers": "56109284.655070758",
                "miles": "34864692.7873741404"
            },
            "orbiting_body": "Earth"
        }
    ],
    "orbital_data": {
        "orbit_id": "14",
        "orbit_determination_date": "2017-04-06 08:49:12",
        "first_observation_date": "2012-08-21",
        "last_observation_date": "2012-10-17",
        "data_arc_in_days": 57,
        "observations_used": 37,
        "orbit_uncertainty": "5",
        "minimum_orbit_intersection": ".283806",
        "jupiter_tisserand_invariant": "3.293",
        "epoch_osculation": "2459000.5",
        "eccentricity": ".4846587551836724",
        "semi_major_axis": "2.49564194008646",
        "inclination": "4.434731412111289",
        "ascending_node_longitude": "143.7289785650754",
        "orbital_period": "1440.030995698825",
        "perihelion_distance": "1.286107224019991",
        "perihelion_argument": "209.6067918254957",
        "aphelion_distance": "3.705176656152929",
        "perihelion_time": "2459071.363731356053",
        "mean_anomaly": "342.2844484845281",
        "mean_motion": ".249994618918114",
        "equinox": "J2000",
        "orbit_class": {
            "orbit_class_type": "AMO",
            "orbit_class_description": "Near-Earth asteroid orbits similar to that of 1221 Amor",
            "orbit_class_range": "1.017 AU < q (perihelion) < 1.3 AU"
        }
    },
    "is_sentry_object": false
}